STARLINK-31795          
1 59645U 24082Q   26068.05831699  .00001819  00000+0  75591-4 0  9997
2 59645  43.0025  84.8034 0001377 283.4360  76.6339 15.27584811105389
STRIX-4                 
1 60352U 24137A   26068.65404516  .00020530  00000+0  71820-3 0  9996
2 60352  43.0134 129.8162 0016840   5.2738 354.8289 15.29026223 88766
